{
"type": "FeatureCollection",
"name": "skor_bahaya_tsunami",
"crs": { "type": "name", "properties": { "name": "urn:ogc:def:crs:OGC:1.3:CRS84" } },
"features": [
{ "type": "Feature", "properties": { "Kelas": "Tinggi", "SKOR_TSUNAMI": 0 }, "geometry": { "type": "MultiPolygon", "coordinates": [ [ [ [ 110.2447814, -7.9982553 ], [ 110.2446014, -7.9980453 ], [ 110.2444614, -7.9979053 ], [ 110.2441214, -7.9977053 ], [ 110.2438714, -7.9976353 ], [ 110.242975119234373, -7.99756359753875 ], [ 110.234042619130364, -7.993711305412651 ], [ 110.227008740274826, -7.99131085451721 ], [ 110.220008264862486, -7.989609540833905 ], [ 110.2196614, -7.9894653 ], [ 110.219644584795148, -7.989464098913938 ], [ 110.204510977333413, -7.982807878756279 ], [ 110.2046916, -7.9826741 ], [ 110.2058339, -7.982753 ], [ 110.2068128, -7.982815 ], [ 110.208003, -7.982577 ], [ 110.2080415, -7.9825705 ], [ 110.2095699, -7.9823098 ], [ 110.2112436, -7.9813071 ], [ 110.2130384, -7.9799443 ], [ 110.2147269, -7.9786411 ], [ 110.2160704, -7.9773903 ], [ 110.216743, -7.9763054 ], [ 110.2174989, -7.975513 ], [ 110.2183807, -7.9745956 ], [ 110.2191372, -7.973469 ], [ 110.2200619, -7.9720503 ], [ 110.2209857, -7.9711329 ], [ 110.221111106714176, -7.970992767002532 ], [ 110.223141773700192, -7.971947569100111 ], [ 110.220867913137226, -7.982782798202984 ], [ 110.223610231084649, -7.983648554559712 ], [ 110.223610231084649, -7.98454404200733 ], [ 110.225406861652928, -7.98454404200733 ], [ 110.225406861652928, -7.985439527466046 ], [ 110.229000122789444, -7.985439527466046 ], [ 110.229000122789444, -7.98454404200733 ], [ 110.230421285641199, -7.984918327187053 ], [ 110.231621378716142, -7.986587739797107 ], [ 110.236709492630069, -7.987604775101305 ], [ 110.237084960346451, -7.989021449407562 ], [ 110.23798327563064, -7.989021449407562 ], [ 110.23798327563064, -7.990812398439238 ], [ 110.24067822148298, -7.990812398439238 ], [ 110.241576536767042, -7.990812398439238 ], [ 110.241576536767042, -7.991707869969569 ], [ 110.242474852051217, -7.991707869969569 ], [ 110.242474852051217, -7.992603339509301 ], [ 110.243373167335307, -7.992603339509301 ], [ 110.244271482619368, -7.992603339509301 ], [ 110.244271482619368, -7.993498807058141 ], [ 110.245169797903586, -7.993498807058141 ], [ 110.244455707433559, -7.994929452252497 ], [ 110.245169797903586, -7.995289736182361 ], [ 110.245169797903586, -7.996185197757338 ], [ 110.246068113187647, -7.996185197757338 ], [ 110.246068113187647, -7.997976114931943 ], [ 110.247864743755912, -7.997976114931943 ], [ 110.248763059039973, -7.997976114931943 ], [ 110.248763059039973, -7.998871570531104 ], [ 110.244875140960744, -7.998330700337991 ], [ 110.2447814, -7.9982553 ] ], [ [ 110.235944521020926, -7.989507664873328 ], [ 110.236720019762373, -7.99108086521048 ], [ 110.237084960346451, -7.989021449407562 ], [ 110.235944521020926, -7.989507664873328 ] ], [ [ 110.229898438073519, -7.989916924918518 ], [ 110.230347595715543, -7.991064250008332 ], [ 110.230796753357581, -7.989916924918518 ], [ 110.230796753357581, -7.989021449407562 ], [ 110.230375668068206, -7.987948450251642 ], [ 110.228747471615705, -7.988571961926327 ], [ 110.229898438073519, -7.989021449407562 ], [ 110.229898438073519, -7.989916924918518 ] ], [ [ 110.223413724616222, -7.989609979923564 ], [ 110.224508546368838, -7.989916924918518 ], [ 110.224201505011891, -7.988825563874232 ], [ 110.223413724616222, -7.989609979923564 ] ] ] ] } },
{ "type": "Feature", "properties": { "Kelas": "Cukup Tinggi", "SKOR_TSUNAMI": 4 }, "geometry": { "type": "MultiPolygon", "coordinates": [ [ [ [ 110.2216576, -7.9703821 ], [ 110.2222453, -7.9698819 ], [ 110.2228326, -7.9695488 ], [ 110.2232526, -7.96909 ], [ 110.2237563, -7.9686732 ], [ 110.2245537, -7.968048 ], [ 110.2246282, -7.967927 ], [ 110.2250161, -7.9672968 ], [ 110.2253782, -7.9665717 ], [ 110.225619882573639, -7.96587109208992 ], [ 110.227208755787274, -7.966188775725264 ], [ 110.227742130487258, -7.968879720979196 ], [ 110.227203492221165, -7.971111521580011 ], [ 110.226305176936975, -7.971111521580011 ], [ 110.226305176936975, -7.972007036849451 ], [ 110.224010262109687, -7.976029834848211 ], [ 110.224508546368838, -7.977380086755359 ], [ 110.224508546368838, -7.980066584884573 ], [ 110.224508546368838, -7.980962080285627 ], [ 110.223610231084649, -7.980962080285627 ], [ 110.221501295593441, -7.981457050523337 ], [ 110.223610231084649, -7.982753065123378 ], [ 110.223610231084649, -7.983648554559712 ], [ 110.220867913137226, -7.982782798202984 ], [ 110.223141773700192, -7.971947569100111 ], [ 110.221111106714176, -7.970992767002532 ], [ 110.2216576, -7.9703821 ] ] ] ] } },
{ "type": "Feature", "properties": { "Kelas": "Sedang", "SKOR_TSUNAMI": 3 }, "geometry": { "type": "MultiPolygon", "coordinates": [ [ [ [ 110.2256897, -7.9656687 ], [ 110.2259012, -7.9646247 ], [ 110.2260695, -7.9642908 ], [ 110.2261047, -7.9641747 ], [ 110.226196, -7.9638732 ], [ 110.2265321, -7.9634143 ], [ 110.2269102, -7.9629554 ], [ 110.226985193467513, -7.96290125068735 ], [ 110.229433489733083, -7.964586618464424 ], [ 110.229898438073519, -7.967529440647958 ], [ 110.229000122789444, -7.967529440647958 ], [ 110.229000122789444, -7.968424963858647 ], [ 110.229000122789444, -7.969320485084373 ], [ 110.22839656720781, -7.970509846143077 ], [ 110.227203492221165, -7.971111521580011 ], [ 110.227742130487258, -7.968879720979196 ], [ 110.227208755787274, -7.966188775725264 ], [ 110.225619882573639, -7.96587109208992 ], [ 110.2256897, -7.9656687 ] ] ] ] } },
{ "type": "Feature", "properties": { "Kelas": "Sedang", "SKOR_TSUNAMI": 3 }, "geometry": { "type": "MultiPolygon", "coordinates": [ [ [ [ 110.223610231084649, -7.982753065123378 ], [ 110.221501295593441, -7.981457050523337 ], [ 110.223610231084649, -7.980962080285627 ], [ 110.223610231084649, -7.981857573698608 ], [ 110.223610231084649, -7.982753065123378 ] ] ] ] } },
{ "type": "Feature", "properties": { "Kelas": "Sangat Rendah", "SKOR_TSUNAMI": 1 }, "geometry": { "type": "MultiPolygon", "coordinates": [ [ [ [ 110.2298052, -7.9611644 ], [ 110.2304346, -7.9607477 ], [ 110.2305655, -7.9606181 ], [ 110.2309071, -7.9602801 ], [ 110.231629164054638, -7.959742281058 ], [ 110.232061763747936, -7.960895160998636 ], [ 110.233665396891922, -7.96199796667645 ], [ 110.231328373535504, -7.965372830708603 ], [ 110.230796753357581, -7.965738388272371 ], [ 110.230454621559943, -7.96339286725005 ], [ 110.229092940255498, -7.9617179452816 ], [ 110.2298052, -7.9611644 ] ] ] ] } },
{ "type": "Feature", "properties": { "Kelas": "Cukup Rendah", "SKOR_TSUNAMI": 2 }, "geometry": { "type": "MultiPolygon", "coordinates": [ [ [ [ 110.2273718, -7.9626221 ], [ 110.2280428, -7.9623726 ], [ 110.2288399, -7.9619146 ], [ 110.229092940255498, -7.9617179452816 ], [ 110.230454621559943, -7.96339286725005 ], [ 110.230796753357581, -7.965738388272371 ], [ 110.230796753357581, -7.967529440647958 ], [ 110.229898438073519, -7.967529440647958 ], [ 110.229433489733083, -7.964586618464424 ], [ 110.226985193467513, -7.96290125068735 ], [ 110.2273718, -7.9626221 ] ] ] ] } },
{ "type": "Feature", "properties": { "Kelas": "Cukup Rendah", "SKOR_TSUNAMI": 2 }, "geometry": { "type": "MultiPolygon", "coordinates": [ [ [ [ 110.223610231084649, -7.981857573698608 ], [ 110.223610231084649, -7.980962080285627 ], [ 110.224508546368838, -7.980962080285627 ], [ 110.224508546368838, -7.981857573698608 ], [ 110.223610231084649, -7.981857573698608 ] ] ] ] } },
{ "type": "Feature", "properties": { "Kelas": "Cukup Tinggi", "SKOR_TSUNAMI": 4 }, "geometry": { "type": "MultiPolygon", "coordinates": [ [ [ [ 110.225406861652928, -7.98454404200733 ], [ 110.223610231084649, -7.98454404200733 ], [ 110.223610231084649, -7.983648554559712 ], [ 110.225406861652928, -7.983648554559712 ], [ 110.225406861652928, -7.98454404200733 ] ] ] ] } },
{ "type": "Feature", "properties": { "Kelas": "Sedang", "SKOR_TSUNAMI": 3 }, "geometry": { "type": "MultiPolygon", "coordinates": [ [ [ [ 110.224508546368838, -7.980066584884573 ], [ 110.224508546368838, -7.977380086755359 ], [ 110.225406861652928, -7.977380086755359 ], [ 110.225406861652928, -7.980066584884573 ], [ 110.224508546368838, -7.980066584884573 ] ] ] ] } },
{ "type": "Feature", "properties": { "Kelas": "Sangat Rendah", "SKOR_TSUNAMI": 1 }, "geometry": { "type": "MultiPolygon", "coordinates": [ [ [ [ 110.226305176936975, -7.98454404200733 ], [ 110.225406861652928, -7.98454404200733 ], [ 110.225406861652928, -7.983648554559712 ], [ 110.226305176936975, -7.983648554559712 ], [ 110.226305176936975, -7.98454404200733 ] ] ] ] } },
{ "type": "Feature", "properties": { "Kelas": "Cukup Tinggi", "SKOR_TSUNAMI": 4 }, "geometry": { "type": "MultiPolygon", "coordinates": [ [ [ [ 110.225406861652928, -7.98454404200733 ], [ 110.226305176936975, -7.98454404200733 ], [ 110.228101807505254, -7.98454404200733 ], [ 110.229000122789444, -7.98454404200733 ], [ 110.229000122789444, -7.985439527466046 ], [ 110.225406861652928, -7.985439527466046 ], [ 110.225406861652928, -7.98454404200733 ] ] ] ] } },
{ "type": "Feature", "properties": { "Kelas": "Sedang", "SKOR_TSUNAMI": 3 }, "geometry": { "type": "MultiPolygon", "coordinates": [ [ [ [ 110.227203492221165, -7.981857573698608 ], [ 110.226305176936975, -7.981857573698608 ], [ 110.226305176936975, -7.980962080285627 ], [ 110.227203492221165, -7.980962080285627 ], [ 110.227203492221165, -7.981857573698608 ] ] ] ] } },
{ "type": "Feature", "properties": { "Kelas": "Cukup Rendah", "SKOR_TSUNAMI": 2 }, "geometry": { "type": "MultiPolygon", "coordinates": [ [ [ [ 110.227203492221165, -7.980962080285627 ], [ 110.226305176936975, -7.980962080285627 ], [ 110.226305176936975, -7.980066584884573 ], [ 110.227203492221165, -7.980066584884573 ], [ 110.227203492221165, -7.980962080285627 ] ] ] ] } },
{ "type": "Feature", "properties": { "Kelas": "Sedang", "SKOR_TSUNAMI": 3 }, "geometry": { "type": "MultiPolygon", "coordinates": [ [ [ [ 110.226305176936975, -7.972007036849451 ], [ 110.226305176936975, -7.971111521580011 ], [ 110.227203492221165, -7.971111521580011 ], [ 110.227203492221165, -7.972007036849451 ], [ 110.226305176936975, -7.972007036849451 ] ] ] ] } },
{ "type": "Feature", "properties": { "Kelas": "Sedang", "SKOR_TSUNAMI": 3 }, "geometry": { "type": "MultiPolygon", "coordinates": [ [ [ [ 110.228101807505254, -7.98454404200733 ], [ 110.226305176936975, -7.98454404200733 ], [ 110.226305176936975, -7.983648554559712 ], [ 110.227203492221165, -7.983648554559712 ], [ 110.227203492221165, -7.982753065123378 ], [ 110.228101807505254, -7.982753065123378 ], [ 110.228101807505254, -7.983648554559712 ], [ 110.228101807505254, -7.98454404200733 ] ] ] ] } },
{ "type": "Feature", "properties": { "Kelas": "Sedang", "SKOR_TSUNAMI": 3 }, "geometry": { "type": "MultiPolygon", "coordinates": [ [ [ [ 110.232593383925845, -7.98454404200733 ], [ 110.232593383925845, -7.983648554559712 ], [ 110.233491699210035, -7.983648554559712 ], [ 110.233491699210035, -7.98454404200733 ], [ 110.232593383925845, -7.98454404200733 ] ] ] ] } },
{ "type": "Feature", "properties": { "Kelas": "Cukup Rendah", "SKOR_TSUNAMI": 2 }, "geometry": { "type": "MultiPolygon", "coordinates": [ [ [ [ 110.227203492221165, -7.976484583404382 ], [ 110.227203492221165, -7.975589078066425 ], [ 110.228101807505254, -7.975589078066425 ], [ 110.228101807505254, -7.976484583404382 ], [ 110.227203492221165, -7.976484583404382 ] ] ] ] } },
{ "type": "Feature", "properties": { "Kelas": "Cukup Rendah", "SKOR_TSUNAMI": 2 }, "geometry": { "type": "MultiPolygon", "coordinates": [ [ [ [ 110.232593383925845, -7.977380086755359 ], [ 110.232593383925845, -7.975589078066425 ], [ 110.233491699210035, -7.975589078066425 ], [ 110.233491699210035, -7.976484583404382 ], [ 110.233491699210035, -7.977380086755359 ], [ 110.232593383925845, -7.977380086755359 ] ] ] ] } },
{ "type": "Feature", "properties": { "Kelas": "Sangat Rendah", "SKOR_TSUNAMI": 1 }, "geometry": { "type": "MultiPolygon", "coordinates": [ [ [ [ 110.228101807505254, -7.975589078066425 ], [ 110.227203492221165, -7.975589078066425 ], [ 110.227203492221165, -7.973798061430495 ], [ 110.228101807505254, -7.973798061430495 ], [ 110.228101807505254, -7.975589078066425 ] ] ] ] } },
{ "type": "Feature", "properties": { "Kelas": "Sedang", "SKOR_TSUNAMI": 3 }, "geometry": { "type": "MultiPolygon", "coordinates": [ [ [ [ 110.227203492221165, -7.980066584884573 ], [ 110.227203492221165, -7.976484583404382 ], [ 110.228101807505254, -7.976484583404382 ], [ 110.228101807505254, -7.975589078066425 ], [ 110.230347595715543, -7.974109391064719 ], [ 110.232593383925845, -7.975589078066425 ], [ 110.232593383925845, -7.977380086755359 ], [ 110.231695068641756, -7.977380086755359 ], [ 110.231695068641756, -7.978275588119209 ], [ 110.230796753357581, -7.978275588119209 ], [ 110.230796753357581, -7.979171087495708 ], [ 110.230216006562671, -7.978853640190238 ], [ 110.229245755874871, -7.97708974799596 ], [ 110.227784239016103, -7.979749138283717 ], [ 110.227203492221165, -7.980066584884573 ] ] ] ] } },
{ "type": "Feature", "properties": { "Kelas": "Cukup Tinggi", "SKOR_TSUNAMI": 4 }, "geometry": { "type": "MultiPolygon", "coordinates": [ [ [ [ 110.235288329778172, -7.982753065123378 ], [ 110.235770823339081, -7.982338550785298 ], [ 110.236725283328454, -7.980208255187817 ], [ 110.242474852051217, -7.982753065123378 ], [ 110.242474852051217, -7.98454404200733 ], [ 110.243373167335307, -7.98454404200733 ], [ 110.243373167335307, -7.985439527466046 ], [ 110.240402761522816, -7.9857902004289 ], [ 110.241576536767042, -7.986335010935614 ], [ 110.241576536767042, -7.987230492415875 ], [ 110.242474852051217, -7.987230492415875 ], [ 110.242474852051217, -7.988125971906618 ], [ 110.243373167335307, -7.988125971906618 ], [ 110.242769611753829, -7.989315277528926 ], [ 110.240979999273705, -7.990217748276397 ], [ 110.24067822148298, -7.990812398439238 ], [ 110.23798327563064, -7.990812398439238 ], [ 110.23798327563064, -7.989021449407562 ], [ 110.237084960346451, -7.989021449407562 ], [ 110.236709492630069, -7.987604775101305 ], [ 110.231621378716142, -7.986587739797107 ], [ 110.230421285641199, -7.984918327187053 ], [ 110.229000122789444, -7.98454404200733 ], [ 110.229000122789444, -7.983648554559712 ], [ 110.228101807505254, -7.983648554559712 ], [ 110.228101807505254, -7.982753065123378 ], [ 110.227203492221165, -7.982753065123378 ], [ 110.227203492221165, -7.981857573698608 ], [ 110.227203492221165, -7.980962080285627 ], [ 110.227203492221165, -7.980066584884573 ], [ 110.227784239016103, -7.979749138283717 ], [ 110.229245755874871, -7.97708974799596 ], [ 110.230216006562671, -7.978853640190238 ], [ 110.230796753357581, -7.979171087495708 ], [ 110.231996846432523, -7.979765753952217 ], [ 110.233491699210035, -7.980066584884573 ], [ 110.233491699210035, -7.981857573698608 ], [ 110.234390014494124, -7.981857573698608 ], [ 110.234390014494124, -7.982753065123378 ], [ 110.235288329778172, -7.982753065123378 ] ], [ [ 110.233491699210035, -7.982753065123378 ], [ 110.233491699210035, -7.983648554559712 ], [ 110.234390014494124, -7.983648554559712 ], [ 110.234390014494124, -7.982753065123378 ], [ 110.233491699210035, -7.982753065123378 ] ], [ [ 110.232593383925845, -7.983648554559712 ], [ 110.231442417468031, -7.984096298532084 ], [ 110.232593383925845, -7.98454404200733 ], [ 110.233491699210035, -7.98454404200733 ], [ 110.233491699210035, -7.983648554559712 ], [ 110.232593383925845, -7.983648554559712 ] ] ] ] } },
{ "type": "Feature", "properties": { "Kelas": "Cukup Rendah", "SKOR_TSUNAMI": 2 }, "geometry": { "type": "MultiPolygon", "coordinates": [ [ [ [ 110.232593383925845, -7.975589078066425 ], [ 110.230347595715543, -7.974109391064719 ], [ 110.228101807505254, -7.975589078066425 ], [ 110.228101807505254, -7.973798061430495 ], [ 110.229000122789444, -7.973798061430495 ], [ 110.229000122789444, -7.972902550132997 ], [ 110.232186334812795, -7.97212247422013 ], [ 110.232593383925845, -7.974693570741667 ], [ 110.232593383925845, -7.975589078066425 ] ] ] ] } },
{ "type": "Feature", "properties": { "Kelas": "Cukup Tinggi", "SKOR_TSUNAMI": 4 }, "geometry": { "type": "MultiPolygon", "coordinates": [ [ [ [ 110.230796753357581, -7.989021449407562 ], [ 110.229898438073519, -7.989021449407562 ], [ 110.228747471615705, -7.988571961926327 ], [ 110.230375668068206, -7.987948450251642 ], [ 110.230796753357581, -7.989021449407562 ] ] ] ] } },
{ "type": "Feature", "properties": { "Kelas": "Cukup Rendah", "SKOR_TSUNAMI": 2 }, "geometry": { "type": "MultiPolygon", "coordinates": [ [ [ [ 110.229000122789444, -7.968424963858647 ], [ 110.229000122789444, -7.967529440647958 ], [ 110.229898438073519, -7.967529440647958 ], [ 110.229898438073519, -7.968424963858647 ], [ 110.229000122789444, -7.968424963858647 ] ] ] ] } },
{ "type": "Feature", "properties": { "Kelas": "Sangat Rendah", "SKOR_TSUNAMI": 1 }, "geometry": { "type": "MultiPolygon", "coordinates": [ [ [ [ 110.230796753357581, -7.969320485084373 ], [ 110.229000122789444, -7.969320485084373 ], [ 110.229000122789444, -7.968424963858647 ], [ 110.229898438073519, -7.968424963858647 ], [ 110.229898438073519, -7.967529440647958 ], [ 110.230796753357581, -7.967529440647958 ], [ 110.230796753357581, -7.969320485084373 ] ] ] ] } },
{ "type": "Feature", "properties": { "Kelas": "Sangat Rendah", "SKOR_TSUNAMI": 1 }, "geometry": { "type": "MultiPolygon", "coordinates": [ [ [ [ 110.232593383925845, -7.974693570741667 ], [ 110.232186334812795, -7.97212247422013 ], [ 110.229000122789444, -7.972902550132997 ], [ 110.230430058251429, -7.97074596887782 ], [ 110.230796753357581, -7.969320485084373 ], [ 110.234325097178697, -7.969917789642004 ], [ 110.233100440795226, -7.974303534703848 ], [ 110.232593383925845, -7.974693570741667 ] ] ] ] } },
{ "type": "Feature", "properties": { "Kelas": "Cukup Tinggi", "SKOR_TSUNAMI": 4 }, "geometry": { "type": "MultiPolygon", "coordinates": [ [ [ [ 110.229898438073519, -7.989916924918518 ], [ 110.230796753357581, -7.989916924918518 ], [ 110.230347595715543, -7.991064250008332 ], [ 110.229898438073519, -7.989916924918518 ] ] ] ] } },
{ "type": "Feature", "properties": { "Kelas": "Cukup Rendah", "SKOR_TSUNAMI": 2 }, "geometry": { "type": "MultiPolygon", "coordinates": [ [ [ [ 110.232593383925845, -7.978275588119209 ], [ 110.231695068641756, -7.978275588119209 ], [ 110.231695068641756, -7.977380086755359 ], [ 110.232593383925845, -7.977380086755359 ], [ 110.232593383925845, -7.978275588119209 ] ] ] ] } },
{ "type": "Feature", "properties": { "Kelas": "Sangat Rendah", "SKOR_TSUNAMI": 1 }, "geometry": { "type": "MultiPolygon", "coordinates": [ [ [ [ 110.234390014494124, -7.980066584884573 ], [ 110.233491699210035, -7.980066584884573 ], [ 110.233491699210035, -7.978275588119209 ], [ 110.232593383925845, -7.978275588119209 ], [ 110.232593383925845, -7.977380086755359 ], [ 110.233491699210035, -7.977380086755359 ], [ 110.233491699210035, -7.976484583404382 ], [ 110.234390014494124, -7.976484583404382 ], [ 110.234390014494124, -7.978275588119209 ], [ 110.234390014494124, -7.980066584884573 ] ] ] ] } },
{ "type": "Feature", "properties": { "Kelas": "Sedang", "SKOR_TSUNAMI": 3 }, "geometry": { "type": "MultiPolygon", "coordinates": [ [ [ [ 110.234390014494124, -7.981857573698608 ], [ 110.233491699210035, -7.981857573698608 ], [ 110.233491699210035, -7.980066584884573 ], [ 110.234390014494124, -7.980066584884573 ], [ 110.234390014494124, -7.980962080285627 ], [ 110.234390014494124, -7.981857573698608 ] ] ] ] } },
{ "type": "Feature", "properties": { "Kelas": "Sedang", "SKOR_TSUNAMI": 3 }, "geometry": { "type": "MultiPolygon", "coordinates": [ [ [ [ 110.233491699210035, -7.983648554559712 ], [ 110.233491699210035, -7.982753065123378 ], [ 110.234390014494124, -7.982753065123378 ], [ 110.234390014494124, -7.983648554559712 ], [ 110.233491699210035, -7.983648554559712 ] ] ] ] } },
{ "type": "Feature", "properties": { "Kelas": "Cukup Rendah", "SKOR_TSUNAMI": 2 }, "geometry": { "type": "MultiPolygon", "coordinates": [ [ [ [ 110.235288329778172, -7.980962080285627 ], [ 110.234390014494124, -7.980962080285627 ], [ 110.234390014494124, -7.980066584884573 ], [ 110.234390014494124, -7.978275588119209 ], [ 110.236186645062361, -7.978275588119209 ], [ 110.236186645062361, -7.979171087495708 ], [ 110.235288329778172, -7.979171087495708 ], [ 110.235288329778172, -7.980962080285627 ] ] ] ] } },
{ "type": "Feature", "properties": { "Kelas": "Sedang", "SKOR_TSUNAMI": 3 }, "geometry": { "type": "MultiPolygon", "coordinates": [ [ [ [ 110.242474852051217, -7.982753065123378 ], [ 110.236725283328454, -7.980208255187817 ], [ 110.235770823339081, -7.982338550785298 ], [ 110.235288329778172, -7.982753065123378 ], [ 110.235288329778172, -7.980962080285627 ], [ 110.235288329778172, -7.979171087495708 ], [ 110.236186645062361, -7.979171087495708 ], [ 110.239779906198777, -7.980066584884573 ], [ 110.240376443692242, -7.979765753952217 ], [ 110.241227386881221, -7.978089317003151 ], [ 110.244573260410263, -7.979776248058251 ], [ 110.243969704828643, -7.981556744101936 ], [ 110.242776629841984, -7.982158403070935 ], [ 110.242474852051217, -7.982753065123378 ] ] ] ] } },
{ "type": "Feature", "properties": { "Kelas": "Cukup Tinggi", "SKOR_TSUNAMI": 4 }, "geometry": { "type": "MultiPolygon", "coordinates": [ [ [ [ 110.237084960346451, -7.989021449407562 ], [ 110.236720019762373, -7.99108086521048 ], [ 110.235944521020926, -7.989507664873328 ], [ 110.237084960346451, -7.989021449407562 ] ] ] ] } },
{ "type": "Feature", "properties": { "Kelas": "Sangat Rendah", "SKOR_TSUNAMI": 1 }, "geometry": { "type": "MultiPolygon", "coordinates": [ [ [ [ 110.246966428471822, -7.980962080285627 ], [ 110.246624296674057, -7.978616647686372 ], [ 110.245511929701223, -7.977934528263801 ], [ 110.24482766610592, -7.976825644485239 ], [ 110.240939645266806, -7.975505124339128 ], [ 110.239779906198777, -7.977380086755359 ], [ 110.23759201721586, -7.975696643754004 ], [ 110.239390402306071, -7.973123804573856 ], [ 110.24803317787169, -7.974586879306937 ], [ 110.24868761459237, -7.979004056024517 ], [ 110.247473485341118, -7.980572050306486 ], [ 110.246966428471822, -7.980962080285627 ] ] ] ] } },
{ "type": "Feature", "properties": { "Kelas": "Cukup Rendah", "SKOR_TSUNAMI": 2 }, "geometry": { "type": "MultiPolygon", "coordinates": [ [ [ [ 110.244271482619368, -7.985439527466046 ], [ 110.243373167335307, -7.985439527466046 ], [ 110.243373167335307, -7.98454404200733 ], [ 110.243373167335307, -7.982753065123378 ], [ 110.242474852051217, -7.982753065123378 ], [ 110.242776629841984, -7.982158403070935 ], [ 110.243969704828643, -7.981556744101936 ], [ 110.244573260410263, -7.979776248058251 ], [ 110.241227386881221, -7.978089317003151 ], [ 110.240376443692242, -7.979765753952217 ], [ 110.239779906198777, -7.980066584884573 ], [ 110.239779906198777, -7.977380086755359 ], [ 110.240939645266806, -7.975505124339128 ], [ 110.24482766610592, -7.976825644485239 ], [ 110.245511929701223, -7.977934528263801 ], [ 110.246624296674057, -7.978616647686372 ], [ 110.246966428471822, -7.980962080285627 ], [ 110.246068113187647, -7.980962080285627 ], [ 110.246068113187647, -7.982753065123378 ], [ 110.245169797903586, -7.982753065123378 ], [ 110.244271482619368, -7.982753065123378 ], [ 110.244271482619368, -7.98454404200733 ], [ 110.244271482619368, -7.985439527466046 ] ] ] ] } },
{ "type": "Feature", "properties": { "Kelas": "Sedang", "SKOR_TSUNAMI": 3 }, "geometry": { "type": "MultiPolygon", "coordinates": [ [ [ [ 110.244271482619368, -7.986335010935614 ], [ 110.242474852051217, -7.986335010935614 ], [ 110.241576536767042, -7.986335010935614 ], [ 110.240402761522816, -7.9857902004289 ], [ 110.243373167335307, -7.985439527466046 ], [ 110.244271482619368, -7.985439527466046 ], [ 110.244271482619368, -7.986335010935614 ] ] ] ] } },
{ "type": "Feature", "properties": { "Kelas": "Sedang", "SKOR_TSUNAMI": 3 }, "geometry": { "type": "MultiPolygon", "coordinates": [ [ [ [ 110.251458004892413, -7.996185197757338 ], [ 110.250559689608238, -7.996185197757338 ], [ 110.249661374324177, -7.996185197757338 ], [ 110.249661374324177, -7.995289736182361 ], [ 110.249661374324177, -7.993498807058141 ], [ 110.247864743755912, -7.993498807058141 ], [ 110.247864743755912, -7.992603339509301 ], [ 110.245169797903586, -7.992603339509301 ], [ 110.245169797903586, -7.993498807058141 ], [ 110.244271482619368, -7.993498807058141 ], [ 110.244271482619368, -7.992603339509301 ], [ 110.244271482619368, -7.990812398439238 ], [ 110.242474852051217, -7.990812398439238 ], [ 110.241576536767042, -7.990812398439238 ], [ 110.24067822148298, -7.990812398439238 ], [ 110.240979999273705, -7.990217748276397 ], [ 110.242769611753829, -7.989315277528926 ], [ 110.243373167335307, -7.988125971906618 ], [ 110.244271482619368, -7.988125971906618 ], [ 110.244271482619368, -7.989916924918518 ], [ 110.246966428471822, -7.989916924918518 ], [ 110.247864743755912, -7.989916924918518 ], [ 110.249008692125543, -7.991998198202512 ], [ 110.249661374324177, -7.990812398439238 ], [ 110.251458004892413, -7.990812398439238 ], [ 110.252952857669825, -7.991113221128517 ], [ 110.254152950744782, -7.991707869969569 ], [ 110.255051266028829, -7.991707869969569 ], [ 110.255051266028829, -7.992603339509301 ], [ 110.252658097967227, -7.992904160861031 ], [ 110.250624606923793, -7.994514075962364 ], [ 110.251458004892413, -7.996185197757338 ] ] ] ] } },
{ "type": "Feature", "properties": { "Kelas": "Cukup Rendah", "SKOR_TSUNAMI": 2 }, "geometry": { "type": "MultiPolygon", "coordinates": [ [ [ [ 110.242474852051217, -7.987230492415875 ], [ 110.241576536767042, -7.987230492415875 ], [ 110.241576536767042, -7.986335010935614 ], [ 110.242474852051217, -7.986335010935614 ], [ 110.242474852051217, -7.987230492415875 ] ] ] ] } },
{ "type": "Feature", "properties": { "Kelas": "Sedang", "SKOR_TSUNAMI": 3 }, "geometry": { "type": "MultiPolygon", "coordinates": [ [ [ [ 110.243373167335307, -7.98454404200733 ], [ 110.242474852051217, -7.98454404200733 ], [ 110.242474852051217, -7.982753065123378 ], [ 110.243373167335307, -7.982753065123378 ], [ 110.243373167335307, -7.98454404200733 ] ] ] ] } },
{ "type": "Feature", "properties": { "Kelas": "Sedang", "SKOR_TSUNAMI": 3 }, "geometry": { "type": "MultiPolygon", "coordinates": [ [ [ [ 110.243373167335307, -7.988125971906618 ], [ 110.242474852051217, -7.988125971906618 ], [ 110.242474852051217, -7.987230492415875 ], [ 110.243373167335307, -7.987230492415875 ], [ 110.243373167335307, -7.988125971906618 ] ] ] ] } },
{ "type": "Feature", "properties": { "Kelas": "Cukup Rendah", "SKOR_TSUNAMI": 2 }, "geometry": { "type": "MultiPolygon", "coordinates": [ [ [ [ 110.244271482619368, -7.992603339509301 ], [ 110.243373167335307, -7.992603339509301 ], [ 110.243373167335307, -7.991707869969569 ], [ 110.242474852051217, -7.991707869969569 ], [ 110.242474852051217, -7.990812398439238 ], [ 110.244271482619368, -7.990812398439238 ], [ 110.244271482619368, -7.992603339509301 ] ] ] ] } },
{ "type": "Feature", "properties": { "Kelas": "Sangat Rendah", "SKOR_TSUNAMI": 1 }, "geometry": { "type": "MultiPolygon", "coordinates": [ [ [ [ 110.244271482619368, -7.98454404200733 ], [ 110.244271482619368, -7.982753065123378 ], [ 110.245169797903586, -7.982753065123378 ], [ 110.245169797903586, -7.98454404200733 ], [ 110.244271482619368, -7.98454404200733 ] ] ] ] } },
{ "type": "Feature", "properties": { "Kelas": "Sangat Rendah", "SKOR_TSUNAMI": 1 }, "geometry": { "type": "MultiPolygon", "coordinates": [ [ [ [ 110.244271482619368, -7.986335010935614 ], [ 110.244271482619368, -7.985439527466046 ], [ 110.245422449077168, -7.985887269449497 ], [ 110.244271482619368, -7.986335010935614 ] ] ] ] } },
{ "type": "Feature", "properties": { "Kelas": "Cukup Rendah", "SKOR_TSUNAMI": 2 }, "geometry": { "type": "MultiPolygon", "coordinates": [ [ [ [ 110.246966428471822, -7.989916924918518 ], [ 110.244271482619368, -7.989916924918518 ], [ 110.244271482619368, -7.988125971906618 ], [ 110.245169797903586, -7.988125971906618 ], [ 110.245169797903586, -7.989021449407562 ], [ 110.246068113187647, -7.989021449407562 ], [ 110.246966428471822, -7.989021449407562 ], [ 110.246966428471822, -7.989916924918518 ] ] ] ] } },
{ "type": "Feature", "properties": { "Kelas": "Cukup Tinggi", "SKOR_TSUNAMI": 4 }, "geometry": { "type": "MultiPolygon", "coordinates": [ [ [ [ 110.247864743755912, -7.997976114931943 ], [ 110.246068113187647, -7.997976114931943 ], [ 110.246068113187647, -7.996185197757338 ], [ 110.246068113187647, -7.995289736182361 ], [ 110.245169797903586, -7.995289736182361 ], [ 110.244455707433559, -7.994929452252497 ], [ 110.245169797903586, -7.993498807058141 ], [ 110.245169797903586, -7.992603339509301 ], [ 110.247864743755912, -7.992603339509301 ], [ 110.247864743755912, -7.993498807058141 ], [ 110.247864743755912, -7.994394272615912 ], [ 110.247864743755912, -7.995289736182361 ], [ 110.246713777298098, -7.995737467218835 ], [ 110.247864743755912, -7.996185197757338 ], [ 110.247864743755912, -7.997976114931943 ] ] ] ] } },
{ "type": "Feature", "properties": { "Kelas": "Sangat Rendah", "SKOR_TSUNAMI": 1 }, "geometry": { "type": "MultiPolygon", "coordinates": [ [ [ [ 110.246068113187647, -7.989021449407562 ], [ 110.245169797903586, -7.989021449407562 ], [ 110.245169797903586, -7.988125971906618 ], [ 110.246068113187647, -7.988125971906618 ], [ 110.246068113187647, -7.989021449407562 ] ] ] ] } },
{ "type": "Feature", "properties": { "Kelas": "Sangat Rendah", "SKOR_TSUNAMI": 1 }, "geometry": { "type": "MultiPolygon", "coordinates": [ [ [ [ 110.246068113187647, -7.982753065123378 ], [ 110.246068113187647, -7.980962080285627 ], [ 110.246966428471822, -7.980962080285627 ], [ 110.247696309640133, -7.98242512659994 ], [ 110.246068113187647, -7.982753065123378 ] ] ] ] } },
{ "type": "Feature", "properties": { "Kelas": "Sedang", "SKOR_TSUNAMI": 3 }, "geometry": { "type": "MultiPolygon", "coordinates": [ [ [ [ 110.247864743755912, -7.996185197757338 ], [ 110.246713777298098, -7.995737467218835 ], [ 110.247864743755912, -7.995289736182361 ], [ 110.247864743755912, -7.996185197757338 ] ] ] ] } },
{ "type": "Feature", "properties": { "Kelas": "Sangat Rendah", "SKOR_TSUNAMI": 1 }, "geometry": { "type": "MultiPolygon", "coordinates": [ [ [ [ 110.247864743755912, -7.989916924918518 ], [ 110.246966428471822, -7.989916924918518 ], [ 110.246966428471822, -7.989021449407562 ], [ 110.247864743755912, -7.989021449407562 ], [ 110.247864743755912, -7.989916924918518 ] ] ] ] } },
{ "type": "Feature", "properties": { "Kelas": "Sangat Rendah", "SKOR_TSUNAMI": 1 }, "geometry": { "type": "MultiPolygon", "coordinates": [ [ [ [ 110.248763059039973, -7.995289736182361 ], [ 110.247864743755912, -7.995289736182361 ], [ 110.247864743755912, -7.994394272615912 ], [ 110.248763059039973, -7.994394272615912 ], [ 110.248763059039973, -7.995289736182361 ] ] ] ] } },
{ "type": "Feature", "properties": { "Kelas": "Cukup Rendah", "SKOR_TSUNAMI": 2 }, "geometry": { "type": "MultiPolygon", "coordinates": [ [ [ [ 110.247864743755912, -7.989916924918518 ], [ 110.249661374324177, -7.989916924918518 ], [ 110.249661374324177, -7.990812398439238 ], [ 110.249008692125543, -7.991998198202512 ], [ 110.247864743755912, -7.989916924918518 ] ] ] ] } },
{ "type": "Feature", "properties": { "Kelas": "Cukup Rendah", "SKOR_TSUNAMI": 2 }, "geometry": { "type": "MultiPolygon", "coordinates": [ [ [ [ 110.249661374324177, -7.995289736182361 ], [ 110.248763059039973, -7.995289736182361 ], [ 110.248763059039973, -7.994394272615912 ], [ 110.247864743755912, -7.994394272615912 ], [ 110.247864743755912, -7.993498807058141 ], [ 110.249661374324177, -7.993498807058141 ], [ 110.249661374324177, -7.995289736182361 ] ] ] ] } },
{ "type": "Feature", "properties": { "Kelas": "Cukup Tinggi", "SKOR_TSUNAMI": 4 }, "geometry": { "type": "MultiPolygon", "coordinates": [ [ [ [ 110.255051266028829, -7.998871570531104 ], [ 110.253956444276341, -7.998564632361626 ], [ 110.254744224671995, -7.997780233754029 ], [ 110.255051266028829, -7.998871570531104 ] ] ] ] } },
{ "type": "Feature", "properties": { "Kelas": "Tinggi", "SKOR_TSUNAMI": 0 }, "geometry": { "type": "MultiPolygon", "coordinates": [ [ [ [ 110.248763059039973, -7.999723925656464 ], [ 110.248763059039973, -7.998871570531104 ], [ 110.250559689608238, -7.998871570531104 ], [ 110.250559689608238, -7.999767024137857 ], [ 110.24894622758589, -7.999767024137857 ], [ 110.248763059039973, -7.999723925656464 ] ] ] ] } },
{ "type": "Feature", "properties": { "Kelas": "Cukup Rendah", "SKOR_TSUNAMI": 2 }, "geometry": { "type": "MultiPolygon", "coordinates": [ [ [ [ 110.249661374324177, -7.996185197757338 ], [ 110.250559689608238, -7.996185197757338 ], [ 110.2501105319662, -7.997332504989527 ], [ 110.249661374324177, -7.996185197757338 ] ] ] ] } },
{ "type": "Feature", "properties": { "Kelas": "Cukup Rendah", "SKOR_TSUNAMI": 2 }, "geometry": { "type": "MultiPolygon", "coordinates": [ [ [ [ 110.255051266028829, -7.991707869969569 ], [ 110.254152950744782, -7.991707869969569 ], [ 110.254602108386806, -7.990560546712732 ], [ 110.255051266028829, -7.991707869969569 ] ] ] ] } },
{ "type": "Feature", "properties": { "Kelas": "Sangat Rendah", "SKOR_TSUNAMI": 1 }, "geometry": { "type": "MultiPolygon", "coordinates": [ [ [ [ 110.251458004892413, -7.990812398439238 ], [ 110.249661374324177, -7.990812398439238 ], [ 110.249661374324177, -7.989916924918518 ], [ 110.251458004892413, -7.989916924918518 ], [ 110.251458004892413, -7.990812398439238 ] ] ] ] } },
{ "type": "Feature", "properties": { "Kelas": "Cukup Tinggi", "SKOR_TSUNAMI": 4 }, "geometry": { "type": "MultiPolygon", "coordinates": [ [ [ [ 110.253254635460564, -7.997080657340627 ], [ 110.251458004892413, -7.997080657340627 ], [ 110.251458004892413, -7.996185197757338 ], [ 110.250624606923793, -7.994514075962364 ], [ 110.252658097967227, -7.992904160861031 ], [ 110.255051266028829, -7.992603339509301 ], [ 110.255949581313018, -7.992603339509301 ], [ 110.255949581313018, -7.993498807058141 ], [ 110.258644527165373, -7.993498807058141 ], [ 110.258644527165373, -7.994394272615912 ], [ 110.259542842449434, -7.994394272615912 ], [ 110.261339473017699, -7.994394272615912 ], [ 110.261788630659723, -7.995541584951622 ], [ 110.262237788301789, -7.994394272615912 ], [ 110.263136103585978, -7.994394272615912 ], [ 110.268525995290631, -7.994394272615912 ], [ 110.268525995290631, -7.995289736182361 ], [ 110.269424310574848, -7.995289736182361 ], [ 110.270322625858896, -7.995289736182361 ], [ 110.270322625858896, -7.996185197757338 ], [ 110.271220941142985, -7.996185197757338 ], [ 110.271220941142985, -7.997080657340627 ], [ 110.268301416469669, -7.996393322330301 ], [ 110.267038160601274, -8.001040243804109 ], [ 110.259502488442536, -7.997717271926641 ], [ 110.253672211705947, -7.996521869807002 ], [ 110.253254635460564, -7.997080657340627 ] ] ] ] } },
{ "type": "Feature", "properties": { "Kelas": "Sedang", "SKOR_TSUNAMI": 3 }, "geometry": { "type": "MultiPolygon", "coordinates": [ [ [ [ 110.258644527165373, -7.993498807058141 ], [ 110.255949581313018, -7.993498807058141 ], [ 110.255949581313018, -7.992603339509301 ], [ 110.257746211881198, -7.992603339509301 ], [ 110.258644527165373, -7.992603339509301 ], [ 110.258644527165373, -7.993498807058141 ] ] ] ] } },
{ "type": "Feature", "properties": { "Kelas": "Cukup Rendah", "SKOR_TSUNAMI": 2 }, "geometry": { "type": "MultiPolygon", "coordinates": [ [ [ [ 110.258644527165373, -7.992603339509301 ], [ 110.257746211881198, -7.992603339509301 ], [ 110.258195369523321, -7.991456018802858 ], [ 110.258644527165373, -7.992603339509301 ] ] ] ] } },
{ "type": "Feature", "properties": { "Kelas": "Sedang", "SKOR_TSUNAMI": 3 }, "geometry": { "type": "MultiPolygon", "coordinates": [ [ [ [ 110.259542842449434, -7.994394272615912 ], [ 110.258644527165373, -7.994394272615912 ], [ 110.258644527165373, -7.993498807058141 ], [ 110.259542842449434, -7.993498807058141 ], [ 110.259542842449434, -7.994394272615912 ] ] ] ] } },
{ "type": "Feature", "properties": { "Kelas": "Sedang", "SKOR_TSUNAMI": 3 }, "geometry": { "type": "MultiPolygon", "coordinates": [ [ [ [ 110.261339473017699, -7.994394272615912 ], [ 110.262237788301789, -7.994394272615912 ], [ 110.261788630659723, -7.995541584951622 ], [ 110.261339473017699, -7.994394272615912 ] ] ] ] } },
{ "type": "Feature", "properties": { "Kelas": "Sedang", "SKOR_TSUNAMI": 3 }, "geometry": { "type": "MultiPolygon", "coordinates": [ [ [ [ 110.263136103585978, -7.994394272615912 ], [ 110.262237788301789, -7.994394272615912 ], [ 110.262686945943912, -7.993246957011266 ], [ 110.263136103585978, -7.994394272615912 ] ] ] ] } },
{ "type": "Feature", "properties": { "Kelas": "Sedang", "SKOR_TSUNAMI": 3 }, "geometry": { "type": "MultiPolygon", "coordinates": [ [ [ [ 110.269424310574848, -7.995289736182361 ], [ 110.268525995290631, -7.995289736182361 ], [ 110.268525995290631, -7.994394272615912 ], [ 110.269424310574848, -7.994394272615912 ], [ 110.269424310574848, -7.995289736182361 ] ] ] ] } },
{ "type": "Feature", "properties": { "Kelas": "Sedang", "SKOR_TSUNAMI": 3 }, "geometry": { "type": "MultiPolygon", "coordinates": [ [ [ [ 110.271220941142985, -7.996185197757338 ], [ 110.270322625858896, -7.996185197757338 ], [ 110.270322625858896, -7.995289736182361 ], [ 110.271220941142985, -7.995289736182361 ], [ 110.271220941142985, -7.996185197757338 ] ] ] ] } },
{ "type": "Feature", "properties": { "Kelas": "Cukup Tinggi", "SKOR_TSUNAMI": 4 }, "geometry": { "type": "MultiPolygon", "coordinates": [ [ [ [ 110.273017571711222, -7.997080657340627 ], [ 110.272119256427175, -7.997080657340627 ], [ 110.272568414069198, -7.995933349390676 ], [ 110.273017571711222, -7.997080657340627 ] ] ] ] } },
{ "type": "Feature", "properties": { "Kelas": "Cukup Tinggi", "SKOR_TSUNAMI": 4 }, "geometry": { "type": "MultiPolygon", "coordinates": [ [ [ [ 110.273915886995439, -7.997976114931943 ], [ 110.273017571711222, -7.997976114931943 ], [ 110.273017571711222, -7.997080657340627 ], [ 110.273915886995439, -7.997080657340627 ], [ 110.273915886995439, -7.997976114931943 ] ] ] ] } },
{ "type": "Feature", "properties": { "Kelas": "Cukup Tinggi", "SKOR_TSUNAMI": 4 }, "geometry": { "type": "MultiPolygon", "coordinates": [ [ [ [ 110.27661083284778, -7.998871570531104 ], [ 110.275712517563591, -7.998871570531104 ], [ 110.275712517563591, -7.997976114931943 ], [ 110.27661083284778, -7.997976114931943 ], [ 110.27661083284778, -7.998871570531104 ] ] ] ] } },
{ "type": "Feature", "properties": { "Kelas": "Sangat Rendah", "SKOR_TSUNAMI": 1 }, "geometry": { "type": "MultiPolygon", "coordinates": [ [ [ [ 110.278407463416031, -7.997976114931943 ], [ 110.277509148131827, -7.997976114931943 ], [ 110.278174111984711, -7.995772446185057 ], [ 110.279305778700092, -7.997080657340627 ], [ 110.278407463416031, -7.997080657340627 ], [ 110.278407463416031, -7.997976114931943 ] ] ] ] } },
{ "type": "Feature", "properties": { "Kelas": "Cukup Tinggi", "SKOR_TSUNAMI": 4 }, "geometry": { "type": "MultiPolygon", "coordinates": [ [ [ [ 110.277509148131827, -7.998871570531104 ], [ 110.277509148131827, -7.997976114931943 ], [ 110.278407463416031, -7.997976114931943 ], [ 110.279305778700092, -7.997976114931943 ], [ 110.279305778700092, -7.998871570531104 ], [ 110.281102409268371, -7.998871570531104 ], [ 110.282000724552418, -7.998871570531104 ], [ 110.282000724552418, -7.999767024137857 ], [ 110.282899039836636, -7.999767024137857 ], [ 110.283797355120697, -7.999767024137857 ], [ 110.283797355120697, -8.000662475752051 ], [ 110.284695670404787, -8.000662475752051 ], [ 110.286492300973023, -8.000662475752051 ], [ 110.287390616257241, -8.001912082144406 ], [ 110.288288931541302, -8.000662475752051 ], [ 110.289187246825378, -8.000662475752051 ], [ 110.289187246825378, -8.001557925373476 ], [ 110.291882192677704, -8.001557925373476 ], [ 110.293678823245969, -8.001557925373476 ], [ 110.293678823245969, -8.002453373001844 ], [ 110.297272084382485, -8.002453373001844 ], [ 110.296363241966134, -8.003670618925142 ], [ 110.289636404467529, -8.002515459628713 ], [ 110.286094024470088, -8.003123208498778 ], [ 110.285211499884397, -8.001940064888361 ], [ 110.277891633936378, -7.999384882559146 ], [ 110.277509148131827, -7.998871570531104 ] ] ] ] } },
{ "type": "Feature", "properties": { "Kelas": "Cukup Rendah", "SKOR_TSUNAMI": 2 }, "geometry": { "type": "MultiPolygon", "coordinates": [ [ [ [ 110.280204093984182, -7.997976114931943 ], [ 110.279305778700092, -7.997976114931943 ], [ 110.278407463416031, -7.997976114931943 ], [ 110.278407463416031, -7.997080657340627 ], [ 110.279305778700092, -7.997080657340627 ], [ 110.280204093984182, -7.997080657340627 ], [ 110.280204093984182, -7.997976114931943 ] ] ] ] } },
{ "type": "Feature", "properties": { "Kelas": "Sedang", "SKOR_TSUNAMI": 3 }, "geometry": { "type": "MultiPolygon", "coordinates": [ [ [ [ 110.281102409268371, -7.998871570531104 ], [ 110.279305778700092, -7.998871570531104 ], [ 110.279305778700092, -7.997976114931943 ], [ 110.280204093984182, -7.997976114931943 ], [ 110.281102409268371, -7.997976114931943 ], [ 110.281102409268371, -7.998871570531104 ] ] ] ] } },
{ "type": "Feature", "properties": { "Kelas": "Sangat Rendah", "SKOR_TSUNAMI": 1 }, "geometry": { "type": "MultiPolygon", "coordinates": [ [ [ [ 110.282000724552418, -7.997976114931943 ], [ 110.281102409268371, -7.997976114931943 ], [ 110.280204093984182, -7.997976114931943 ], [ 110.280204093984182, -7.997080657340627 ], [ 110.282000724552418, -7.997080657340627 ], [ 110.282000724552418, -7.997976114931943 ] ] ] ] } },
{ "type": "Feature", "properties": { "Kelas": "Cukup Rendah", "SKOR_TSUNAMI": 2 }, "geometry": { "type": "MultiPolygon", "coordinates": [ [ [ [ 110.282000724552418, -7.998871570531104 ], [ 110.281102409268371, -7.998871570531104 ], [ 110.281102409268371, -7.997976114931943 ], [ 110.282000724552418, -7.997976114931943 ], [ 110.282000724552418, -7.998871570531104 ] ] ] ] } },
{ "type": "Feature", "properties": { "Kelas": "Sangat Rendah", "SKOR_TSUNAMI": 1 }, "geometry": { "type": "MultiPolygon", "coordinates": [ [ [ [ 110.282899039836636, -7.998871570531104 ], [ 110.282000724552418, -7.998871570531104 ], [ 110.282000724552418, -7.997976114931943 ], [ 110.282899039836636, -7.997976114931943 ], [ 110.282899039836636, -7.998871570531104 ] ] ] ] } },
{ "type": "Feature", "properties": { "Kelas": "Cukup Rendah", "SKOR_TSUNAMI": 2 }, "geometry": { "type": "MultiPolygon", "coordinates": [ [ [ [ 110.283797355120697, -7.999767024137857 ], [ 110.282899039836636, -7.999767024137857 ], [ 110.282899039836636, -7.998871570531104 ], [ 110.283797355120697, -7.998871570531104 ], [ 110.283797355120697, -7.999767024137857 ] ] ] ] } },
{ "type": "Feature", "properties": { "Kelas": "Sedang", "SKOR_TSUNAMI": 3 }, "geometry": { "type": "MultiPolygon", "coordinates": [ [ [ [ 110.284695670404787, -8.000662475752051 ], [ 110.283797355120697, -8.000662475752051 ], [ 110.283797355120697, -7.999767024137857 ], [ 110.284695670404787, -7.999767024137857 ], [ 110.284695670404787, -8.000662475752051 ] ] ] ] } },
{ "type": "Feature", "properties": { "Kelas": "Sangat Rendah", "SKOR_TSUNAMI": 1 }, "geometry": { "type": "MultiPolygon", "coordinates": [ [ [ [ 110.290085562109553, -8.000662475752051 ], [ 110.289187246825378, -8.000662475752051 ], [ 110.289187246825378, -7.999767024137857 ], [ 110.284695670404787, -7.999767024137857 ], [ 110.283797355120697, -7.999767024137857 ], [ 110.283797355120697, -7.998871570531104 ], [ 110.290085562109553, -7.998871570531104 ], [ 110.290085562109553, -7.999767024137857 ], [ 110.290085562109553, -8.000662475752051 ] ] ] ] } },
{ "type": "Feature", "properties": { "Kelas": "Cukup Rendah", "SKOR_TSUNAMI": 2 }, "geometry": { "type": "MultiPolygon", "coordinates": [ [ [ [ 110.289187246825378, -8.000662475752051 ], [ 110.288288931541302, -8.000662475752051 ], [ 110.286492300973023, -8.000662475752051 ], [ 110.284695670404787, -8.000662475752051 ], [ 110.284695670404787, -7.999767024137857 ], [ 110.289187246825378, -7.999767024137857 ], [ 110.289187246825378, -8.000662475752051 ] ] ] ] } },
{ "type": "Feature", "properties": { "Kelas": "Sedang", "SKOR_TSUNAMI": 3 }, "geometry": { "type": "MultiPolygon", "coordinates": [ [ [ [ 110.286492300973023, -8.000662475752051 ], [ 110.288288931541302, -8.000662475752051 ], [ 110.287390616257241, -8.001912082144406 ], [ 110.286492300973023, -8.000662475752051 ] ] ] ] } },
{ "type": "Feature", "properties": { "Kelas": "Sedang", "SKOR_TSUNAMI": 3 }, "geometry": { "type": "MultiPolygon", "coordinates": [ [ [ [ 110.291882192677704, -8.001557925373476 ], [ 110.289187246825378, -8.001557925373476 ], [ 110.289187246825378, -8.000662475752051 ], [ 110.290085562109553, -8.000662475752051 ], [ 110.291882192677704, -8.000662475752051 ], [ 110.291882192677704, -8.001557925373476 ] ] ] ] } },
{ "type": "Feature", "properties": { "Kelas": "Cukup Rendah", "SKOR_TSUNAMI": 2 }, "geometry": { "type": "MultiPolygon", "coordinates": [ [ [ [ 110.291882192677704, -8.000662475752051 ], [ 110.290085562109553, -8.000662475752051 ], [ 110.290085562109553, -7.999767024137857 ], [ 110.291882192677704, -7.999767024137857 ], [ 110.291882192677704, -8.000662475752051 ] ] ] ] } },
{ "type": "Feature", "properties": { "Kelas": "Sangat Rendah", "SKOR_TSUNAMI": 1 }, "geometry": { "type": "MultiPolygon", "coordinates": [ [ [ [ 110.292780507961879, -8.000662475752051 ], [ 110.291882192677704, -8.000662475752051 ], [ 110.291882192677704, -7.999767024137857 ], [ 110.292780507961879, -7.999767024137857 ], [ 110.292780507961879, -8.000662475752051 ] ] ] ] } },
{ "type": "Feature", "properties": { "Kelas": "Cukup Rendah", "SKOR_TSUNAMI": 2 }, "geometry": { "type": "MultiPolygon", "coordinates": [ [ [ [ 110.294577138530158, -8.001557925373476 ], [ 110.293678823245969, -8.001557925373476 ], [ 110.291882192677704, -8.001557925373476 ], [ 110.291882192677704, -8.000662475752051 ], [ 110.292780507961879, -8.000662475752051 ], [ 110.294577138530158, -8.000662475752051 ], [ 110.294577138530158, -8.001557925373476 ] ] ] ] } },
{ "type": "Feature", "properties": { "Kelas": "Sedang", "SKOR_TSUNAMI": 3 }, "geometry": { "type": "MultiPolygon", "coordinates": [ [ [ [ 110.297272084382485, -8.002453373001844 ], [ 110.293678823245969, -8.002453373001844 ], [ 110.293678823245969, -8.001557925373476 ], [ 110.294577138530158, -8.001557925373476 ], [ 110.295475453814248, -8.001557925373476 ], [ 110.296373769098309, -8.001557925373476 ], [ 110.297272084382485, -8.001557925373476 ], [ 110.297272084382485, -8.002453373001844 ] ] ] ] } },
{ "type": "Feature", "properties": { "Kelas": "Sangat Rendah", "SKOR_TSUNAMI": 1 }, "geometry": { "type": "MultiPolygon", "coordinates": [ [ [ [ 110.295475453814248, -8.001557925373476 ], [ 110.294577138530158, -8.001557925373476 ], [ 110.294577138530158, -8.000662475752051 ], [ 110.295475453814248, -7.999412865478859 ], [ 110.296373769098309, -8.000662475752051 ], [ 110.295475453814248, -8.000662475752051 ], [ 110.295475453814248, -8.001557925373476 ] ] ] ] } },
{ "type": "Feature", "properties": { "Kelas": "Cukup Rendah", "SKOR_TSUNAMI": 2 }, "geometry": { "type": "MultiPolygon", "coordinates": [ [ [ [ 110.296373769098309, -8.001557925373476 ], [ 110.295475453814248, -8.001557925373476 ], [ 110.295475453814248, -8.000662475752051 ], [ 110.296373769098309, -8.000662475752051 ], [ 110.296373769098309, -8.001557925373476 ] ] ] ] } },
{ "type": "Feature", "properties": { "Kelas": "Sangat Rendah", "SKOR_TSUNAMI": 1 }, "geometry": { "type": "MultiPolygon", "coordinates": [ [ [ [ 110.299068714950749, -8.001557925373476 ], [ 110.29817039966656, -8.001557925373476 ], [ 110.297272084382485, -8.001557925373476 ], [ 110.296373769098309, -8.001557925373476 ], [ 110.296373769098309, -8.000662475752051 ], [ 110.29817039966656, -8.000662475752051 ], [ 110.29817039966656, -7.998871570531104 ], [ 110.299068714950749, -7.998871570531104 ], [ 110.299068714950749, -7.999767024137857 ], [ 110.299068714950749, -8.001557925373476 ] ] ] ] } },
{ "type": "Feature", "properties": { "Kelas": "Cukup Rendah", "SKOR_TSUNAMI": 2 }, "geometry": { "type": "MultiPolygon", "coordinates": [ [ [ [ 110.297272084382485, -8.002453373001844 ], [ 110.297272084382485, -8.001557925373476 ], [ 110.29817039966656, -8.001557925373476 ], [ 110.29817039966656, -8.002453373001844 ], [ 110.297272084382485, -8.002453373001844 ] ] ] ] } },
{ "type": "Feature", "properties": { "Kelas": "Tinggi", "SKOR_TSUNAMI": 0 }, "geometry": { "type": "MultiPolygon", "coordinates": [ [ [ [ 110.322881, -8.022608 ], [ 110.322667, -8.022557 ], [ 110.322444, -8.022511 ], [ 110.322371303846637, -8.022501988080162 ], [ 110.32065497833932, -8.022020625289693 ], [ 110.32036, -8.021858 ], [ 110.31944, -8.021435 ], [ 110.318908, -8.021321 ], [ 110.318368, -8.021207 ], [ 110.317618, -8.021161 ], [ 110.317479914080721, -8.021130142811337 ], [ 110.317180246187348, -8.02104609758055 ], [ 110.316907, -8.020967 ], [ 110.316552, -8.020854 ], [ 110.316407, -8.020822 ], [ 110.316371680130175, -8.020819326136616 ], [ 110.314392627064763, -8.020264278447826 ], [ 110.314376, -8.020252 ], [ 110.313897, -8.01995 ], [ 110.313025, -8.019607 ], [ 110.311278, -8.019147 ], [ 110.311155, -8.019101 ], [ 110.310607, -8.01906 ], [ 110.310422, -8.019054 ], [ 110.310324, -8.019053 ], [ 110.309645, -8.019045 ], [ 110.309434, -8.019037 ], [ 110.309180400495535, -8.018948825403063 ], [ 110.308002252027904, -8.018293768093635 ], [ 110.307796, -8.018108 ], [ 110.307647, -8.017968 ], [ 110.307558, -8.017896 ], [ 110.306981, -8.017616 ], [ 110.30613, -8.017418 ], [ 110.305569, -8.017376 ], [ 110.304858, -8.017406 ], [ 110.304654649523371, -8.017414884244124 ], [ 110.303976113094663, -8.017261199175767 ], [ 110.300623390450141, -8.016260325344772 ], [ 110.300126, -8.016067 ], [ 110.30011, -8.016061 ], [ 110.300089, -8.016052 ], [ 110.299877, -8.015983 ], [ 110.29972, -8.015916 ], [ 110.299508, -8.015838 ], [ 110.299186, -8.015712 ], [ 110.298858, -8.015576 ], [ 110.298437, -8.015458 ], [ 110.298256, -8.015426 ], [ 110.297032, -8.015114 ], [ 110.296455, -8.015031 ], [ 110.296327, -8.015057 ], [ 110.296290237170268, -8.015072243124523 ], [ 110.294094644969249, -8.014574949272006 ], [ 110.291793352010444, -8.013947271307398 ], [ 110.291568, -8.013847 ], [ 110.290864, -8.013651 ], [ 110.290565, -8.013568 ], [ 110.290033, -8.013407 ], [ 110.289642, -8.013259 ], [ 110.289429, -8.013158 ], [ 110.289251, -8.013094 ], [ 110.289248, -8.013093 ], [ 110.288589, -8.012963 ], [ 110.288188, -8.012946 ], [ 110.287599080393221, -8.012940567162298 ], [ 110.286234412048131, -8.012631455302023 ], [ 110.285503, -8.012245 ], [ 110.28531, -8.012214 ], [ 110.284691, -8.012233 ], [ 110.284516684553623, -8.012242371798193 ], [ 110.283436628210296, -8.011997727576258 ], [ 110.283277, -8.011927 ], [ 110.282196, -8.011336 ], [ 110.281915, -8.011213 ], [ 110.281582, -8.01118 ], [ 110.281107, -8.01116 ], [ 110.279944712581198, -8.011116756200819 ], [ 110.277991641692623, -8.010031368506704 ], [ 110.275230024002809, -8.009202395573531 ], [ 110.271287612980444, -8.007759558859057 ], [ 110.265399437016598, -8.005992295439578 ], [ 110.258000668328094, -8.003096831198762 ], [ 110.2578614, -8.0029653 ], [ 110.2576814, -8.0028453 ], [ 110.2569414, -8.0025753 ], [ 110.256663097196949, -8.002573380670324 ], [ 110.251105345962486, -8.000398387690243 ], [ 110.250559689608238, -7.999767024137857 ], [ 110.25270371554025, -7.999218733933512 ], [ 110.253254635460564, -7.997080657340627 ], [ 110.253672211705947, -7.996521869807002 ], [ 110.259502488442536, -7.997717271926641 ], [ 110.267038160601274, -8.001040243804109 ], [ 110.268301416469669, -7.996393322330301 ], [ 110.271220941142985, -7.997080657340627 ], [ 110.272119256427175, -7.997080657340627 ], [ 110.273017571711222, -7.997080657340627 ], [ 110.273017571711222, -7.997976114931943 ], [ 110.273915886995439, -7.997976114931943 ], [ 110.275712517563591, -7.997976114931943 ], [ 110.275712517563591, -7.998871570531104 ], [ 110.27661083284778, -7.998871570531104 ], [ 110.277509148131827, -7.998871570531104 ], [ 110.277891633936378, -7.999384882559146 ], [ 110.285211499884397, -8.001940064888361 ], [ 110.286094024470088, -8.003123208498778 ], [ 110.289636404467529, -8.002515459628713 ], [ 110.296363241966134, -8.003670618925142 ], [ 110.297272084382485, -8.002453373001844 ], [ 110.29817039966656, -8.002453373001844 ], [ 110.29817039966656, -8.001557925373476 ], [ 110.299068714950749, -8.001557925373476 ], [ 110.299967030234839, -8.001557925373476 ], [ 110.300865345518886, -8.001557925373476 ], [ 110.300865345518886, -8.002453373001844 ], [ 110.299967030234839, -8.002453373001844 ], [ 110.299967030234839, -8.003348818636965 ], [ 110.299068714950749, -8.003348818636965 ], [ 110.299068714950749, -8.004244262278601 ], [ 110.299068714950749, -8.006035143580725 ], [ 110.29817039966656, -8.006035143580725 ], [ 110.29817039966656, -8.007826016906348 ], [ 110.296887844055888, -8.008887595277557 ], [ 110.297984420330437, -8.011814354074032 ], [ 110.299068714950749, -8.010512311935249 ], [ 110.299967030234839, -8.010512311935249 ], [ 110.300474087104234, -8.010902312910995 ], [ 110.30126888558793, -8.011928031159231 ], [ 110.303018144061141, -8.011670946012982 ], [ 110.30317780556679, -8.012750877409268 ], [ 110.303037443803547, -8.013701389523668 ], [ 110.309195816161605, -8.014743714850219 ], [ 110.310239756774877, -8.017285683141733 ], [ 110.310746813644272, -8.017675677541103 ], [ 110.311645128928362, -8.017675677541103 ], [ 110.312094286570385, -8.018817676899545 ], [ 110.312796095386176, -8.017032099136163 ], [ 110.314340074780688, -8.016780263827341 ], [ 110.314340074780688, -8.017675677541103 ], [ 110.315238390064877, -8.017675677541103 ], [ 110.316896413391987, -8.016981382315839 ], [ 110.319729966485511, -8.017675677541103 ], [ 110.320628281769558, -8.017675677541103 ], [ 110.321333599629369, -8.019066013236596 ], [ 110.323323227621884, -8.019466498977653 ], [ 110.323323227621884, -8.021257312424686 ], [ 110.326018173474353, -8.021257312424686 ], [ 110.326018173474353, -8.023048117880597 ], [ 110.322972688092335, -8.022650857463358 ], [ 110.322881, -8.022608 ] ], [ [ 110.255051266028829, -7.998871570531104 ], [ 110.254744224671995, -7.997780233754029 ], [ 110.253956444276341, -7.998564632361626 ], [ 110.255051266028829, -7.998871570531104 ] ] ] ] } },
{ "type": "Feature", "properties": { "Kelas": "Cukup Tinggi", "SKOR_TSUNAMI": 4 }, "geometry": { "type": "MultiPolygon", "coordinates": [ [ [ [ 110.299967030234839, -8.007826016906348 ], [ 110.29817039966656, -8.007826016906348 ], [ 110.29817039966656, -8.006035143580725 ], [ 110.299068714950749, -8.006035143580725 ], [ 110.299967030234839, -8.006035143580725 ], [ 110.299967030234839, -8.007826016906348 ] ] ] ] } },
{ "type": "Feature", "properties": { "Kelas": "Sedang", "SKOR_TSUNAMI": 3 }, "geometry": { "type": "MultiPolygon", "coordinates": [ [ [ [ 110.299967030234839, -8.001557925373476 ], [ 110.299068714950749, -8.001557925373476 ], [ 110.299068714950749, -7.999767024137857 ], [ 110.299967030234839, -7.999767024137857 ], [ 110.299967030234839, -8.001557925373476 ] ] ] ] } },
{ "type": "Feature", "properties": { "Kelas": "Cukup Tinggi", "SKOR_TSUNAMI": 4 }, "geometry": { "type": "MultiPolygon", "coordinates": [ [ [ [ 110.299967030234839, -8.010512311935249 ], [ 110.299068714950749, -8.010512311935249 ], [ 110.299517872592773, -8.009365042296483 ], [ 110.299967030234839, -8.010512311935249 ] ] ] ] } },
{ "type": "Feature", "properties": { "Kelas": "Cukup Tinggi", "SKOR_TSUNAMI": 4 }, "geometry": { "type": "MultiPolygon", "coordinates": [ [ [ [ 110.299068714950749, -8.004244262278601 ], [ 110.299068714950749, -8.003348818636965 ], [ 110.299967030234839, -8.003348818636965 ], [ 110.299967030234839, -8.004244262278601 ], [ 110.299068714950749, -8.004244262278601 ] ] ] ] } },
{ "type": "Feature", "properties": { "Kelas": "Sangat Rendah", "SKOR_TSUNAMI": 1 }, "geometry": { "type": "MultiPolygon", "coordinates": [ [ [ [ 110.300865345518886, -7.998871570531104 ], [ 110.299068714950749, -7.998871570531104 ], [ 110.299967030234839, -7.997621954696915 ], [ 110.300865345518886, -7.998871570531104 ] ] ] ] } },
{ "type": "Feature", "properties": { "Kelas": "Cukup Rendah", "SKOR_TSUNAMI": 2 }, "geometry": { "type": "MultiPolygon", "coordinates": [ [ [ [ 110.299967030234839, -7.999767024137857 ], [ 110.299068714950749, -7.999767024137857 ], [ 110.299068714950749, -7.998871570531104 ], [ 110.300865345518886, -7.998871570531104 ], [ 110.301763660803076, -7.998871570531104 ], [ 110.301763660803076, -7.999767024137857 ], [ 110.299967030234839, -7.999767024137857 ] ] ] ] } },
{ "type": "Feature", "properties": { "Kelas": "Cukup Rendah", "SKOR_TSUNAMI": 2 }, "geometry": { "type": "MultiPolygon", "coordinates": [ [ [ [ 110.300865345518886, -8.007826016906348 ], [ 110.299967030234839, -8.007826016906348 ], [ 110.299967030234839, -8.006035143580725 ], [ 110.300865345518886, -8.006035143580725 ], [ 110.300865345518886, -8.007826016906348 ] ] ] ] } },
{ "type": "Feature", "properties": { "Kelas": "Sangat Rendah", "SKOR_TSUNAMI": 1 }, "geometry": { "type": "MultiPolygon", "coordinates": [ [ [ [ 110.300865345518886, -8.006035143580725 ], [ 110.299967030234839, -8.006035143580725 ], [ 110.300416187876863, -8.004887861164613 ], [ 110.300865345518886, -8.006035143580725 ] ] ] ] } },
{ "type": "Feature", "properties": { "Kelas": "Cukup Tinggi", "SKOR_TSUNAMI": 4 }, "geometry": { "type": "MultiPolygon", "coordinates": [ [ [ [ 110.300865345518886, -8.003348818636965 ], [ 110.299967030234839, -8.003348818636965 ], [ 110.299967030234839, -8.002453373001844 ], [ 110.300865345518886, -8.002453373001844 ], [ 110.300865345518886, -8.003348818636965 ] ] ] ] } },
{ "type": "Feature", "properties": { "Kelas": "Cukup Tinggi", "SKOR_TSUNAMI": 4 }, "geometry": { "type": "MultiPolygon", "coordinates": [ [ [ [ 110.300865345518886, -8.002453373001844 ], [ 110.300865345518886, -8.001557925373476 ], [ 110.299967030234839, -8.001557925373476 ], [ 110.299967030234839, -7.999767024137857 ], [ 110.301763660803076, -7.999767024137857 ], [ 110.301763660803076, -7.998871570531104 ], [ 110.302661976087165, -7.998871570531104 ], [ 110.303560291371355, -7.998871570531104 ], [ 110.303560291371355, -7.999767024137857 ], [ 110.302661976087165, -8.001557925373476 ], [ 110.300865345518886, -8.002453373001844 ] ] ] ] } },
{ "type": "Feature", "properties": { "Kelas": "Sangat Rendah", "SKOR_TSUNAMI": 1 }, "geometry": { "type": "MultiPolygon", "coordinates": [ [ [ [ 110.300865345518886, -8.007826016906348 ], [ 110.300865345518886, -8.006035143580725 ], [ 110.302118074254992, -8.006930581240715 ], [ 110.300865345518886, -8.007826016906348 ] ] ] ] } },
{ "type": "Feature", "properties": { "Kelas": "Sedang", "SKOR_TSUNAMI": 3 }, "geometry": { "type": "MultiPolygon", "coordinates": [ [ [ [ 110.300865345518886, -8.003348818636965 ], [ 110.300865345518886, -8.002453373001844 ], [ 110.302661976087165, -8.001557925373476 ], [ 110.302661976087165, -8.003348818636965 ], [ 110.300865345518886, -8.003348818636965 ] ] ] ] } },
{ "type": "Feature", "properties": { "Kelas": "Sedang", "SKOR_TSUNAMI": 3 }, "geometry": { "type": "MultiPolygon", "coordinates": [ [ [ [ 110.303560291371355, -7.999767024137857 ], [ 110.303560291371355, -7.998871570531104 ], [ 110.302661976087165, -7.998871570531104 ], [ 110.303265531668785, -7.997682293129343 ], [ 110.304458606655444, -7.997080657340627 ], [ 110.305356921939492, -7.997080657340627 ], [ 110.305356921939492, -7.997976114931943 ], [ 110.304753366358, -7.99916539146546 ], [ 110.303560291371355, -7.999767024137857 ] ] ] ] } },
{ "type": "Feature", "properties": { "Kelas": "Cukup Rendah", "SKOR_TSUNAMI": 2 }, "geometry": { "type": "MultiPolygon", "coordinates": [ [ [ [ 110.305356921939492, -7.997080657340627 ], [ 110.304458606655444, -7.997080657340627 ], [ 110.304458606655444, -7.996185197757338 ], [ 110.305356921939492, -7.996185197757338 ], [ 110.305356921939492, -7.997080657340627 ] ] ] ] } },
{ "type": "Feature", "properties": { "Kelas": "Cukup Rendah", "SKOR_TSUNAMI": 2 }, "geometry": { "type": "MultiPolygon", "coordinates": [ [ [ [ 110.305356921939492, -7.997976114931943 ], [ 110.305356921939492, -7.997080657340627 ], [ 110.306255237223681, -7.997080657340627 ], [ 110.306255237223681, -7.997976114931943 ], [ 110.305356921939492, -7.997976114931943 ] ] ] ] } },
{ "type": "Feature", "properties": { "Kelas": "Sedang", "SKOR_TSUNAMI": 3 }, "geometry": { "type": "MultiPolygon", "coordinates": [ [ [ [ 110.306255237223681, -7.997080657340627 ], [ 110.305356921939492, -7.997080657340627 ], [ 110.305356921939492, -7.996185197757338 ], [ 110.306255237223681, -7.996185197757338 ], [ 110.306255237223681, -7.997080657340627 ] ] ] ] } },
{ "type": "Feature", "properties": { "Kelas": "Cukup Rendah", "SKOR_TSUNAMI": 2 }, "geometry": { "type": "MultiPolygon", "coordinates": [ [ [ [ 110.307153552507771, -7.996185197757338 ], [ 110.306255237223681, -7.996185197757338 ], [ 110.305356921939492, -7.996185197757338 ], [ 110.305356921939492, -7.995289736182361 ], [ 110.306255237223681, -7.995289736182361 ], [ 110.307153552507771, -7.995289736182361 ], [ 110.307153552507771, -7.996185197757338 ] ] ] ] } },
{ "type": "Feature", "properties": { "Kelas": "Sangat Rendah", "SKOR_TSUNAMI": 1 }, "geometry": { "type": "MultiPolygon", "coordinates": [ [ [ [ 110.306255237223681, -7.997080657340627 ], [ 110.306255237223681, -7.996185197757338 ], [ 110.307153552507771, -7.996185197757338 ], [ 110.307153552507771, -7.997080657340627 ], [ 110.306255237223681, -7.997080657340627 ] ] ] ] } },
{ "type": "Feature", "properties": { "Kelas": "Sangat Rendah", "SKOR_TSUNAMI": 1 }, "geometry": { "type": "MultiPolygon", "coordinates": [ [ [ [ 110.307153552507771, -7.996185197757338 ], [ 110.307153552507771, -7.995289736182361 ], [ 110.306255237223681, -7.995289736182361 ], [ 110.3070552992736, -7.994044481619396 ], [ 110.308336100362254, -7.995430526659595 ], [ 110.307153552507771, -7.996185197757338 ] ] ] ] } },
{ "type": "Feature", "properties": { "Kelas": "Sedang", "SKOR_TSUNAMI": 3 }, "geometry": { "type": "MultiPolygon", "coordinates": [ [ [ [ 110.311645128928362, -8.016780263827341 ], [ 110.310746813644272, -8.016780263827341 ], [ 110.310746813644272, -8.015884848116901 ], [ 110.311645128928362, -8.015884848116901 ], [ 110.311645128928362, -8.016780263827341 ] ] ] ] } },
{ "type": "Feature", "properties": { "Kelas": "Sangat Rendah", "SKOR_TSUNAMI": 1 }, "geometry": { "type": "MultiPolygon", "coordinates": [ [ [ [ 110.311645128928362, -8.017675677541103 ], [ 110.310746813644272, -8.017675677541103 ], [ 110.310746813644272, -8.016780263827341 ], [ 110.311645128928362, -8.016780263827341 ], [ 110.311645128928362, -8.017675677541103 ] ] ] ] } },
{ "type": "Feature", "properties": { "Kelas": "Cukup Tinggi", "SKOR_TSUNAMI": 4 }, "geometry": { "type": "MultiPolygon", "coordinates": [ [ [ [ 110.311645128928362, -8.017675677541103 ], [ 110.311645128928362, -8.016780263827341 ], [ 110.311645128928362, -8.015884848116901 ], [ 110.31476466911424, -8.014433291063503 ], [ 110.320628281769558, -8.015884848116901 ], [ 110.320628281769558, -8.016780263827341 ], [ 110.319729966485511, -8.016780263827341 ], [ 110.319729966485511, -8.017675677541103 ], [ 110.316896413391987, -8.016981382315839 ], [ 110.315238390064877, -8.017675677541103 ], [ 110.315238390064877, -8.016780263827341 ], [ 110.314340074780688, -8.016780263827341 ], [ 110.312796095386176, -8.017032099136163 ], [ 110.312094286570385, -8.018817676899545 ], [ 110.311645128928362, -8.017675677541103 ] ] ] ] } },
{ "type": "Feature", "properties": { "Kelas": "Sedang", "SKOR_TSUNAMI": 3 }, "geometry": { "type": "MultiPolygon", "coordinates": [ [ [ [ 110.321526597053747, -8.016780263827341 ], [ 110.320628281769558, -8.016780263827341 ], [ 110.320628281769558, -8.015884848116901 ], [ 110.321526597053747, -8.015884848116901 ], [ 110.321526597053747, -8.016780263827341 ] ] ] ] } },
{ "type": "Feature", "properties": { "Kelas": "Cukup Tinggi", "SKOR_TSUNAMI": 4 }, "geometry": { "type": "MultiPolygon", "coordinates": [ [ [ [ 110.323323227621884, -8.019466498977653 ], [ 110.321333599629369, -8.019066013236596 ], [ 110.320628281769558, -8.017675677541103 ], [ 110.320628281769558, -8.016780263827341 ], [ 110.321526597053747, -8.016780263827341 ], [ 110.322424912337837, -8.016780263827341 ], [ 110.322424912337837, -8.017675677541103 ], [ 110.322424912337837, -8.018571089257902 ], [ 110.323323227621884, -8.018571089257902 ], [ 110.323323227621884, -8.019466498977653 ] ] ] ] } },
{ "type": "Feature", "properties": { "Kelas": "Sedang", "SKOR_TSUNAMI": 3 }, "geometry": { "type": "MultiPolygon", "coordinates": [ [ [ [ 110.323323227621884, -8.018571089257902 ], [ 110.322424912337837, -8.018571089257902 ], [ 110.322424912337837, -8.017675677541103 ], [ 110.324489984778083, -8.018051680751325 ], [ 110.323323227621884, -8.018571089257902 ] ] ] ] } },
{ "type": "Feature", "properties": { "Kelas": "Cukup Tinggi", "SKOR_TSUNAMI": 4 }, "geometry": { "type": "MultiPolygon", "coordinates": [ [ [ [ 110.326018173474353, -8.021257312424686 ], [ 110.323323227621884, -8.021257312424686 ], [ 110.323323227621884, -8.019466498977653 ], [ 110.325119858190163, -8.019466498977653 ], [ 110.325119858190163, -8.020361906699977 ], [ 110.326018173474353, -8.020361906699977 ], [ 110.327169139932025, -8.020809609812058 ], [ 110.326018173474353, -8.021257312424686 ] ] ] ] } },
{ "type": "Feature", "properties": { "Kelas": "Sedang", "SKOR_TSUNAMI": 3 }, "geometry": { "type": "MultiPolygon", "coordinates": [ [ [ [ 110.326018173474353, -8.020361906699977 ], [ 110.325119858190163, -8.020361906699977 ], [ 110.325119858190163, -8.019466498977653 ], [ 110.326018173474353, -8.019466498977653 ], [ 110.326018173474353, -8.020361906699977 ] ] ] ] } },
{ "type": "Feature", "properties": { "Kelas": "Tinggi", "SKOR_TSUNAMI": 0 }, "geometry": { "type": "MultiPolygon", "coordinates": [ [ [ [ 110.335882, -8.026616 ], [ 110.335433, -8.026379 ], [ 110.335151, -8.026258 ], [ 110.334793, -8.026142 ], [ 110.334537811760498, -8.026059257146585 ], [ 110.333369620818928, -8.02556992216644 ], [ 110.329589603636109, -8.024603238346964 ], [ 110.329514, -8.024562 ], [ 110.32938, -8.024469 ], [ 110.328549, -8.024214 ], [ 110.328277, -8.024152 ], [ 110.327845, -8.024076 ], [ 110.327661, -8.024024 ], [ 110.327382, -8.023925 ], [ 110.326996, -8.023817 ], [ 110.326555, -8.023664 ], [ 110.326415593434049, -8.02362173492866 ], [ 110.326018173474353, -8.023048117880597 ], [ 110.328713119326693, -8.023048117880597 ], [ 110.330509749894944, -8.023048117880597 ], [ 110.331408065179033, -8.023048117880597 ], [ 110.331408065179033, -8.023943517611299 ], [ 110.332306380463081, -8.023943517611299 ], [ 110.333204695747298, -8.023943517611299 ], [ 110.33410301103136, -8.023943517611299 ], [ 110.33410301103136, -8.024838915343548 ], [ 110.337696272167889, -8.024838915343548 ], [ 110.337696272167889, -8.025734311077104 ], [ 110.33857281406452, -8.025734311077104 ], [ 110.3386015, -8.0257792 ], [ 110.3390059, -8.0264983 ], [ 110.3394024, -8.0271201 ], [ 110.339492902736126, -8.027272233293491 ], [ 110.339492902736126, -8.02752509654745 ], [ 110.337164651989966, -8.027159595084326 ], [ 110.335903130905251, -8.026631165721476 ], [ 110.335882, -8.026616 ] ] ] ] } },
{ "type": "Feature", "properties": { "Kelas": "Sedang", "SKOR_TSUNAMI": 3 }, "geometry": { "type": "MultiPolygon", "coordinates": [ [ [ [ 110.328713119326693, -8.022152716151629 ], [ 110.329378083179563, -8.01994917995113 ], [ 110.330509749894944, -8.021257312424686 ], [ 110.328713119326693, -8.022152716151629 ] ] ] ] } },
{ "type": "Feature", "properties": { "Kelas": "Cukup Tinggi", "SKOR_TSUNAMI": 4 }, "geometry": { "type": "MultiPolygon", "coordinates": [ [ [ [ 110.330509749894944, -8.023048117880597 ], [ 110.328713119326693, -8.023048117880597 ], [ 110.328713119326693, -8.022152716151629 ], [ 110.330509749894944, -8.021257312424686 ], [ 110.330509749894944, -8.023048117880597 ] ] ] ] } },
{ "type": "Feature", "properties": { "Kelas": "Sedang", "SKOR_TSUNAMI": 3 }, "geometry": { "type": "MultiPolygon", "coordinates": [ [ [ [ 110.332306380463081, -8.023048117880597 ], [ 110.331408065179033, -8.023048117880597 ], [ 110.331408065179033, -8.022152716151629 ], [ 110.332306380463081, -8.022152716151629 ], [ 110.332306380463081, -8.023048117880597 ] ] ] ] } },
{ "type": "Feature", "properties": { "Kelas": "Cukup Tinggi", "SKOR_TSUNAMI": 4 }, "geometry": { "type": "MultiPolygon", "coordinates": [ [ [ [ 110.3370056, -8.0229358 ], [ 110.337265707393996, -8.023339967951188 ], [ 110.337696272167889, -8.024838915343548 ], [ 110.33410301103136, -8.024838915343548 ], [ 110.33410301103136, -8.023943517611299 ], [ 110.333653853389322, -8.02279628634626 ], [ 110.333204695747298, -8.023943517611299 ], [ 110.332306380463081, -8.023943517611299 ], [ 110.332306380463081, -8.023048117880597 ], [ 110.332306380463081, -8.022152716151629 ], [ 110.336923197988781, -8.022728368223342 ], [ 110.3370056, -8.0229358 ] ] ] ] } },
{ "type": "Feature", "properties": { "Kelas": "Cukup Tinggi", "SKOR_TSUNAMI": 4 }, "geometry": { "type": "MultiPolygon", "coordinates": [ [ [ [ 110.3381743, -8.0251107 ], [ 110.33857281406452, -8.025734311077104 ], [ 110.337696272167889, -8.025734311077104 ], [ 110.337696272167889, -8.024838915343548 ], [ 110.338022563204575, -8.024838915343548 ], [ 110.3381743, -8.0251107 ] ] ] ] } },
{ "type": "Feature", "properties": { "Kelas": "Tinggi", "SKOR_TSUNAMI": 0 }, "geometry": { "type": "MultiPolygon", "coordinates": [ [ [ [ 110.3397983, -8.0277856 ], [ 110.3398199, -8.0278125 ], [ 110.3397649, -8.0279565 ], [ 110.3397462, -8.0280055 ], [ 110.3397432, -8.0280133 ], [ 110.339687, -8.027989 ], [ 110.339615714672675, -8.027961582566414 ], [ 110.339492902736126, -8.02752509654745 ], [ 110.339673436070186, -8.027575706225592 ], [ 110.3397983, -8.0277856 ] ] ] ] } }
]
}
